{
  "links" : {
    "next" : "https://api.nasa.gov/neo/rest/v1/neo/browse?page=1&size=20&api_key=DEMO_KEY",
    "self" : "https://api.nasa.gov/neo/rest/v1/neo/browse?page=0&size=20&api_key=DEMO_KEY"
  },
  "page" : {
    "size" : 20,
    "total_elements" : 16548,
    "total_pages" : 2,
    "number" : 0
  },
  "near_earth_objects" : [ {
    "links" : {
      "self" : "https://api.nasa.gov/neo/rest/v1/neo/2163335?api_key=DEMO_KEY"
    },
    "neo_reference_id" : "2163335",
    "name" : "163335 (2002 LJ)",
    "nasa_jpl_url" : "http://ssd.jpl.nasa.gov/sbdb.cgi?sstr=2163335",
    "absolute_magnitude_h" : 17.0,
    "estimated_diameter" : {
      "kilometers" : {
        "estimated_diameter_min" : 1.0581688593,
        "estimated_diameter_max" : 2.3661375011
      },
      "meters" : {
        "estimated_diameter_min" : 1058.1688593312,
        "estimated_diameter_max" : 2366.137501138
      },
      "miles" : {
        "estimated_diameter_min" : 0.6575154423,
        "estimated_diameter_max" : 1.4702492252
      },
      "feet" : {
        "estimated_diameter_min" : 3471.6827204482,
        "estimated_diameter_max" : 7762.9185592335
      }
    },
    "is_potentially_hazardous_asteroid" : false,
    "close_approach_data" : [ {
      "close_approach_date" : "1901-06-12",
      "epoch_date_close_approach" : -2163427200000,
      "relative_velocity" : {
        "kilometers_per_second" : "30.0460206212",
        "kilometers_per_hour" : "108165.6742361897",
        "miles_per_hour" : "67209.9435274813"
      },
      "miss_distance" : {
        "astronomical" : "0.4909440755",
        "lunar" : "190.9772491455",
        "kilometers" : "73444192",
        "miles" : "45636104"
      },
      "orbiting_body" : "Earth"
    }, {
      "close_approach_date" : "1927-06-14",
      "epoch_date_close_approach" : -1342800000000,
      "relative_velocity" : {
        "kilometers_per_second" : "28.8013962641",
        "kilometers_per_hour" : "103685.0265507031",
        "miles_per_hour" : "64425.84330313"
      },
      "miss_distance" : {
        "astronomical" : "0.4964582063",
        "lunar" : "193.1222381592",
        "kilometers" : "74269088",
        "miles" : "46148672"
      },
      "orbiting_body" : "Earth"
    } ],
    "orbital_data" : {
      "orbit_id" : "66",
      "orbit_determination_date" : "2017-06-03 06:19:36",
      "orbit_uncertainty" : "0",
      "minimum_orbit_intersection" : ".501031",
      "jupiter_tisserand_invariant" : "4.336",
      "epoch_osculation" : "2458000.5",
      "eccentricity" : ".6671307618164383",
      "semi_major_axis" : "1.327962043075027",
      "inclination" : "56.31282891416037",
      "ascending_node_longitude" : "247.0556270301461",
      "orbital_period" : "558.9550955568759",
      "perihelion_distance" : ".4420377136150705",
      "perihelion_argument" : "155.6280818282431",
      "aphelion_distance" : "2.213886372534984",
      "perihelion_time" : "2458102.308380062561",
      "mean_anomaly" : "294.4294074535496",
      "mean_motion" : ".6440588928549602",
      "equinox" : "J2000"
    }
  }, {
    "links" : {
      "self" : "https://api.nasa.gov/neo/rest/v1/neo/2189058?api_key=DEMO_KEY"
    },
    "neo_reference_id" : "2189058",
    "name" : "189058 (2000 UT16)",
    "nasa_jpl_url" : "http://ssd.jpl.nasa.gov/sbdb.cgi?sstr=2189058",
    "absolute_magnitude_h" : 16.5,
    "estimated_diameter" : {
      "kilometers" : {
        "estimated_diameter_min" : 1.332155667,
        "estimated_diameter_max" : 2.978790628
      },
      "meters" : {
        "estimated_diameter_min" : 1332.1556669813,
        "estimated_diameter_max" : 2978.7906279817
      },
      "miles" : {
        "estimated_diameter_min" : 0.8277628989,
        "estimated_diameter_max" : 1.8509341113
      },
      "feet" : {
        "estimated_diameter_min" : 4370.5895984589,
        "estimated_diameter_max" : 9772.9354439076
      }
    },
    "is_potentially_hazardous_asteroid" : false,
    "close_approach_data" : [ ],
    "orbital_data" : {
      "orbit_id" : "129",
      "orbit_determination_date" : "2017-04-06 09:25:47",
      "orbit_uncertainty" : "0",
      "minimum_orbit_intersection" : ".538789",
      "jupiter_tisserand_invariant" : "3.108",
      "epoch_osculation" : "2458000.5",
      "eccentricity" : ".5114188802005835",
      "semi_major_axis" : "2.569890804085108",
      "inclination" : "26.23314263037786",
      "ascending_node_longitude" : "257.2635451006278",
      "orbital_period" : "1504.771067543074",
      "perihelion_distance" : "1.255600126822125",
      "perihelion_argument" : "91.3157178005813",
      "aphelion_distance" : "3.884181481348091",
      "perihelion_time" : "2457775.010011345411",
      "mean_anomaly" : "53.94601057036105",
      "mean_motion" : ".2392390495570816",
      "equinox" : "J2000"
    }
  }, {
    "links" : {
      "self" : "https://api.nasa.gov/neo/rest/v1/neo/2210012?api_key=DEMO_KEY"
    },
    "neo_reference_id" : "2210012",
    "name" : "210012 (2006 KT1)",
    "nasa_jpl_url" : "http://ssd.jpl.nasa.gov/sbdb.cgi?sstr=2210012",
    "absolute_magnitude_h" : 16.7,
    "estimated_diameter" : {
      "kilometers" : {
        "estimated_diameter_min" : 1.214940408,
        "estimated_diameter_max" : 2.7166893409
      },
      "meters" : {
        "estimated_diameter_min" : 1214.9404079963,
        "estimated_diameter_max" : 2716.6893408911
      },
      "miles" : {
        "estimated_diameter_min" : 0.7549287363,
        "estimated_diameter_max" : 1.6880719724
      },
      "feet" : {
        "estimated_diameter_min" : 3986.0250881707,
        "estimated_diameter_max" : 8913.0230571693
      }
    },
    "is_potentially_hazardous_asteroid" : false,
    "close_approach_data" : [ {
      "close_approach_date" : "1956-01-02",
      "epoch_date_close_approach" : -441734400000,
      "relative_velocity" : {
        "kilometers_per_second" : "1.9913553173",
        "kilometers_per_hour" : "7168.879142214",
        "miles_per_hour" : "4454.4627092273"
      },
      "miss_distance" : {
        "astronomical" : "1.9594317747",
        "lunar" : "762.2189331055",
        "kilometers" : "293126816",
        "miles" : "182140560"
      },
      "orbiting_body" : "Juptr"
    }, {
      "close_approach_date" : "2110-01-27",
      "epoch_date_close_approach" : 4420252800000,
      "relative_velocity" : {
        "kilometers_per_second" : "1.9863628877",
        "kilometers_per_hour" : "7150.90639585",
        "miles_per_hour" : "4443.2951435769"
      },
      "miss_distance" : {
        "astronomical" : "1.9624459827",
        "lunar" : "763.3914794922",
        "kilometers" : "293577728",
        "miles" : "182420752"
      },
      "orbiting_body" : "Juptr"
    }, {
      "close_approach_date" : "2169-09-12",
      "epoch_date_close_approach" : 6301868400000,
      "relative_velocity" : {
        "kilometers_per_second" : "1.9890694548",
        "kilometers_per_hour" : "7160.6500373975",
        "miles_per_hour" : "4449.3494635151"
      },
      "miss_distance" : {
        "astronomical" : "1.9668419702",
        "lunar" : "765.1015014648",
        "kilometers" : "294235360",
        "miles" : "182829376"
      },
      "orbiting_body" : "Juptr"
    } ],
    "orbital_data" : {
      "orbit_id" : "64",
      "orbit_determination_date" : "2017-04-06 09:25:26",
      "orbit_uncertainty" : "0",
      "minimum_orbit_intersection" : ".205195",
      "jupiter_tisserand_invariant" : "3.413",
      "epoch_osculation" : "2458000.5",
      "eccentricity" : ".4730111175081129",
      "semi_major_axis" : "2.30751949493784",
      "inclination" : "9.250499833390331",
      "ascending_node_longitude" : "138.667633911512",
      "orbital_period" : "1280.314001940428",
      "perihelion_distance" : "1.216037119965536",
      "perihelion_argument" : "189.3466569624149",
      "aphelion_distance" : "3.399001869910144",
      "perihelion_time" : "2457894.539885162774",
      "mean_anomaly" : "29.79397341869906",
      "mean_motion" : ".2811810223541947",
      "equinox" : "J2000"
    }
  }, {
    "links" : {
      "self" : "https://api.nasa.gov/neo/rest/v1/neo/2276274?api_key=DEMO_KEY"
    },
    "neo_reference_id" : "2276274",
    "name" : "276274 (2002 SS41)",
    "nasa_jpl_url" : "http://ssd.jpl.nasa.gov/sbdb.cgi?sstr=2276274",
    "absolute_magnitude_h" : 17.2,
    "estimated_diameter" : {
      "kilometers" : {
        "estimated_diameter_min" : 0.9650614696,
        "estimated_diameter_max" : 2.1579430484
      },
      "meters" : {
        "estimated_diameter_min" : 965.0614695789,
        "estimated_diameter_max" : 2157.9430484443
      },
      "miles" : {
        "estimated_diameter_min" : 0.5996612104,
        "estimated_diameter_max" : 1.34088323
      },
      "feet" : {
        "estimated_diameter_min" : 3166.2122718533,
        "estimated_diameter_max" : 7079.8658710581
      }
    },
    "is_potentially_hazardous_asteroid" : false,
    "close_approach_data" : [ ],
    "orbital_data" : {
      "orbit_id" : "94",
      "orbit_determination_date" : "2015-01-08 11:12:05",
      "orbit_uncertainty" : "0",
      "minimum_orbit_intersection" : ".600743",
      "jupiter_tisserand_invariant" : "2.993",
      "epoch_osculation" : "2457600.5",
      "eccentricity" : ".3826831275030616",
      "semi_major_axis" : "2.104740374542074",
      "inclination" : "63.68286998824724",
      "ascending_node_longitude" : "190.125241798393",
      "orbital_period" : "1115.311614869463",
      "perihelion_distance" : "1.299291745430348",
      "perihelion_argument" : "101.8029165672748",
      "aphelion_distance" : "2.9101890036538",
      "perihelion_time" : "2457977.671756231325",
      "mean_anomaly" : "238.2565962435808",
      "mean_motion" : ".3227797462166075",
      "equinox" : "J2000"
    }
  } ]
}
